CALSPHERE 1             
1 00900U 64063C   21143.95615427  .00000256  00000-0  26353-3 0  9993
2 00900  90.1650  34.0414 0029197 109.6960 262.9160 13.73533812817195
CALSPHERE 2             
1 00902U 64063E   21143.78109323  .00000042  00000-0  49320-4 0  9992
2 00902  90.1778  36.8652 0017698 192.9268 238.3018 13.52695489606091
LCS 1                   
1 01361U 65034C   21143.64221991  .00000007  00000-0 -22195-3 0  9994
2 01361  32.1405 250.8347 0011269 295.6799  64.2534  9.89299342 26628
TEMPSAT 1               
1 01512U 65065E   21143.96583091  .00000010  00000-0  14051-5 0  9990
2 01512  89.8957 222.2893 0071213  45.5478 127.7711 13.33435871713467
CALSPHERE 4A            
1 01520U 65065H   21143.93541278  .00000059  00000-0  98169-4 0  9991
2 01520  90.0123 129.9724 0067663 282.2751 138.8603 13.35842617715657
OPS 5712 (P/L 160)      
1 02826U 67053A   21143.95426449  .00000684  00000-0  19439-3 0  9990
2 02826  69.9267 121.8487 0006834 198.4860 161.6026 14.49511285796270
LES-5                   
1 02866U 67066E   21143.60287910 -.00000080  00000-0  00000-0 0  9990
2 02866   2.1168 263.5131 0052522  14.2956  35.8325  1.09425701110788
SURCAL 159              
1 02872U 67053F   21143.93761355  .00000004  00000-0  40185-4 0  9996
2 02872  69.9759  22.1124 0006631 347.4777  12.6164 13.98850149751396
OPS 5712 (P/L 153)      
1 02874U 67053H   21143.67562355 -.00000038  00000-0  11001-4 0  9991
2 02874  69.9723 119.9911 0004759  72.4019 287.7607 13.96369094748442
SURCAL 150B             
1 02909U 67053J   21143.92884404  .00000959  00000-0  20317-3 0  9990
2 02909  69.9463 129.7234 0006223 236.2305 123.8242 14.62341237806640
RIGIDSPHERE 2 (LCS 4)   
1 05398U 71067E   21143.92503528  .00000200  00000-0  64105-4 0  9993
2 05398  87.6200 130.5224 0061544 228.7759 130.8125 14.33994256608434
OSCAR 7 (AO-7)          
1 07530U 74089B   21143.91041199 -.00000042  00000-0  20059-4 0  9995
2 07530 101.8526 118.4406 0012650  69.7112 346.7407 12.53648870128897
STARLETTE               
1 07646U 75010A   21143.87522099 -.00000131  00000-0  11713-4 0  9992
2 07646  49.8220 207.8504 0205742  70.6529 291.6484 13.82309227338594
LAGEOS 1                
1 08820U 76039A   21143.77281138 -.00000004  00000-0  00000-0 0  9996
2 08820 109.8450 265.4816 0045167 337.6819 334.7388  6.38664890795220
PHASE 3B (AO-10)        
1 14129U 83058B   21143.25092775 -.00000042  00000-0  00000-0 0  9996
2 14129  26.0429 158.8130 6020112 336.9565   4.6839  2.05871712257374
UOSAT 2 (UO-11)         
1 14781U 84021B   21143.90648204  .00000147  00000-0  23979-4 0  9996
2 14781  97.5926 144.9573 0009046 152.8818 207.2871 14.83285746982291
AJISAI (EGS)            
1 16908U 86061A   21143.93554492 -.00000114  00000-0 -11553-3 0  9993
2 16908  50.0100  76.7505 0011292 150.2473 319.2631 12.44493803250021
TDRS 3                  
1 19548U 88091B   21143.89598117 -.00000302  00000-0  00000-0 0  9998
2 19548  13.9804 354.4816 0036198 329.5846 191.3961  1.00274533106832
COSMOS 1989 (ETALON 1)  
1 19751U 89001C   21143.84371691  .00000096  00000-0  00000-0 0  9996
2 19751  64.2286 135.7823 0023221 212.0675  71.3239  2.13156269251924
COSMOS 2024 (ETALON 2)  
1 20026U 89039C   21143.58036774 -.00000047  00000-0  00000-0 0  9992
2 20026  65.5424  13.5945 0018244 219.6483  66.4736  2.13204240249046
FLTSATCOM 8 (USA 46)    
1 20253U 89077A   21143.91780685 -.00000082  00000-0  00000-0 0  9999
2 20253  12.9638   2.9554 0006706  74.8496 206.2261  1.00273403242057
LUSAT (LO-19)           
1 20442U 90005G   21143.83924757  .00000008  00000-0  19654-4 0  9999
2 20442  98.7398  99.0837 0010808 230.2955 129.7277 14.32986711637303
HST                     
1 20580U 90037B   21143.93680124  .00000575  00000-0  23805-4 0  9997
2 20580  28.4692 227.3003 0002717 153.6863   9.3097 15.09645778507343
SKYNET 4C               
1 20776U 90079A   21143.73104170  .00000123  00000-0  00000-0 0  9997
2 20776  13.9070   3.0938 0002485  58.3074 117.1369  1.00277058112331
TDRS 5                  
1 21639U 91054B   21143.87933293  .00000082  00000-0  00000-0 0  9995
2 21639  14.2545   7.7989 0026739   9.3428  13.4778  1.00275992109169
GEOTAIL                 
1 22049U 92044A   21145.31589138 -.00001338  00000-0  00000-0 0  9993
2 22049  39.0363  42.4326 5271490 182.1564 359.9970  0.19225887 12219
LAGEOS 2                
1 22195U 92070B   21143.86007734 -.00000009  00000-0  00000-0 0  9993
2 22195  52.6764 356.0322 0137682  98.1774 243.5769  6.47293537675746
TDRS 6                  
1 22314U 93003B   21143.89996198 -.00000296  00000-0  00000-0 0  9995
2 22314  14.0957  10.9922 0009465  84.4104  64.5081  1.00274329103857
SCD 1                   
1 22490U 93009B   21143.55389416  .00000217  00000-0  95306-5 0  9998
2 22490  24.9695  97.5331 0043031  19.4316 142.2908 14.44609483493518
UFO 2 (USA 95)          
1 22787U 93056A   21143.72059086  .00000125  00000-0  00000-0 0  9995
2 22787  11.3741  13.3246 0000898  71.4524  84.8460  1.00274454 99995
STELLA                  
1 22824U 93061B   21143.93847167 -.00000038  00000-0  35030-5 0  9991
2 22824  98.9770 149.6123 0006086 193.4786 228.5476 14.27384277440810
EYESAT A (AO-27)        
1 22825U 93061C   21143.89110323  .00000006  00000-0  20289-4 0  9997
2 22825  98.9185 160.9032 0009530 104.7048 255.5190 14.30115005442471
ITAMSAT (IO-26)         
1 22826U 93061D   21143.93727845  .00000015  00000-0  23734-4 0  9994
2 22826  98.9127 160.8614 0010106  93.4830 266.7508 14.30453798442726
USA 99 (MILSTAR-1 1)    
1 22988U 94009A   21143.37959576 -.00000193  00000-0  00000-0 0  9997
2 22988  14.7132  47.2993 0003587  24.8884 215.6590  1.00273925 14406
ASTRA 1D                
1 23331U 94070A   21143.20754362 -.00000266  00000-0  00000-0 0  9997
2 23331   9.5727  40.2134 0003940  26.7495 175.7994  1.00273421 97724
USA 107 (DSP 17)        
1 23435U 94084A   21143.62202130 -.00000168  00000-0  00000-0 0  9995
2 23435  14.5843   8.9720 0002250  85.1277 274.8371  1.00272998 14396
RADIO ROSTO (RS-15)     
1 23439U 94085A   21143.95846827 -.00000037  00000-0  15882-3 0  9995
2 23439  64.8129  55.5744 0160619 339.7300  19.7293 11.27570839 87572
UFO 4 (USA 108)         
1 23467U 95003A   21143.72325587 -.00000022  00000-0  00000-0 0  9994
2 23467   9.8549  19.4050 0007195  63.6754 231.1236  1.00272430 96395
AMSC 1                  
1 23553U 95019A   21143.28836375 -.00000090  00000-0  00000-0 0  9995
2 23553  11.5859  28.8361 0007803 359.4095 209.0849  1.00273548 95613
TDRS 7                  
1 23613U 95035B   21143.93936889 -.00000204  00000-0  00000-0 0  9990
2 23613  14.1116   1.6721 0030741  41.3462 261.7118  1.00270659 94697
USA 113                 
1 23628U 95038A   21143.91810769 -.00000339  00000-0  00000-0 0  9994
2 23628  11.7403  27.6623 0001755  12.2916 276.2421  1.00271112 14413
USA 115 (MILSTAR-1 2)   
1 23712U 95060A   21143.70033465 -.00000019  00000-0  00000-0 0  9995
2 23712  13.3677  17.2366 0002418  55.1789 301.2172  1.00272754 14312
POLAR                   
1 23802U 96013A   21142.56058595  .00000164  00000-0  00000-0 0  9998
2 23802  78.7105 245.7275 6029708 272.0574  24.3180  1.29846759120817
INMARSAT 3-F1           
1 23839U 96020A   21143.18305715 -.00000185  00000-0  00000-0 0  9998
2 23839   6.7496  60.4752 0008199  14.1752 213.7732  1.00002329 91743
JAS-2 (FO-29)           
1 24278U 96046B   21143.89976892 -.00000005  00000-0  31673-4 0  9997
2 24278  98.5679 215.1287 0349775 213.1184 144.7616 13.53104109222923
INMARSAT 3-F2           
1 24307U 96053A   21143.60608498  .00000123  00000-0  00000-0 0  9997
2 24307   5.6498  69.7492 0010738 357.6561 251.4864  0.99987659 90448
AMC-1 (GE-1)            
1 24315U 96054A   21143.61479491  .00000071  00000-0  00000-0 0  9999
2 24315   4.7114  76.2673 0003405 336.3714 279.2284  1.00271048 27763
INMARSAT 3-F3           
1 24674U 96070A   21143.75500787 -.00000283  00000-0  00000-0 0  9999
2 24674   6.3104  64.2388 0007148   4.0544 189.1645  0.99984771 89406
INTELSAT 26 (IS-26)     
1 24732U 97007A   21143.80868168  .00000006  00000-0  00000-0 0  9993
2 24732   9.5195  40.9987 0007800   8.0400 187.3278  1.00272016 54186
USA 130 (DSP 18)        
1 24737U 97008A   21143.43613836 -.00000300  00000-0  00000-0 0  9996
2 24737  13.7401  17.0189 0009492 313.1068 212.2097  0.99031912   482
GALAXY 25 (G-25)        
1 24812U 97026A   21143.87437035  .00000160  00000-0  00000-0 0  9996
2 24812   2.7385  87.4041 0005701   1.0513 140.8860  1.00270267 87828
NAVSTAR 43 (USA 132)    
1 24876U 97035A   21143.47200829  .00000110  00000-0  00000-0 0  9996
2 24876  55.4710 170.8858 0047671  53.9273 306.5866  2.00562658174833
INTELSAT 5 (IS-5)       
1 24916U 97046A   21143.60847057  .00000094  00000-0  00000-0 0  9999
2 24916   6.4107  63.5907 0004639 358.2702 261.6222  1.00271552 87066
FORTE                   
1 24920U 97047A   21143.93290311  .00000021  00000-0  32540-4 0  9994
2 24920  69.9543 227.1182 0025411 276.4104  83.4124 14.26426998234715
AMC-3 (GE-3)            
1 24936U 97050A   21143.82827140 -.00000255  00000-0  00000-0 0  9991
2 24936   3.6059  82.9510 0003274 345.1596  39.7164  1.00270621 33884
NSS-5                   
1 24957U 97053A   21143.87785977  .00000108  00000-0  00000-0 0  9999
2 24957   6.6549  61.8329 0003963 356.5467 189.8366  1.00269638 86612
USA 134                 
1 25019U 97065A   21143.45329062 -.00000061  00000-0  00000-0 0  9994
2 25019  10.6089  33.9182 0006766 354.4780 264.2715  1.00272650 14392
NAVSTAR 44 (USA 135)    
1 25030U 97067A   21143.19503812  .00000008  00000-0  00000-0 0  9997
2 25030  55.7832 235.7906 0019765 244.1668 191.4082  1.88437997171812
ASTRA 1G                
1 25071U 97076A   21143.87166602  .00000121  00000-0  00000-0 0  9995
2 25071   5.3681  71.0789 0003707 346.2439 157.5788  1.00274003 85966
